SatCatId,ObjectName,LaunchYear,OrbitalPeriod,LaunchMass,StatusCode,Inclination,Status,UcsData,OrbitClassEstimated,LaunchSiteCountry,Owner,UseType,Purpose,LaunchVehicleClass,TLE1,TLE2,MeanMotion,Eccentricity,OrbitClass
47742,STARLINK-2156,2021,95.59,260.0,+,53.05,Active,1,LEO,USA,USA,Commercial,Communications,Falcon,1 47742U 21017W   24131.53309609  .00003625  00000+0  26217-3 0  9997,2 47742  53.0546 321.0889 0001432  79.5110 280.6040 15.06390551177216,15.06390551,0.0001432,LEO
47743,STARLINK-2157,2021,95.59,260.0,+,53.05,Active,1,LEO,USA,USA,Commercial,Communications,Falcon,1 47743U 21017X   24130.96175650  .00003855  00000+0  27751-3 0  9990,2 47743  53.0533 323.6497 0001066  92.3876 267.7235 15.06408329177104,15.06408329,0.0001066,LEO
47744,STARLINK-2158,2021,91.74,260.0,P,53.05,Active,1,LEO,USA,USA,Commercial,Communications,Falcon,1 47744U 21017Y   24131.49172347  .00040313  00000+0  33539-3 0  9991,2 47744  53.0553 305.9068 0000175 324.5720  35.5285 15.69750104177423,15.69750104,1.75e-05,LEO
47745,STARLINK-2159,2021,95.59,260.0,+,53.05,Active,1,LEO,USA,USA,Commercial,Communications,Falcon,1 47745U 21017Z   24130.96821891  .00019312  00000+0  13105-2 0  9999,2 47745  53.0543 333.6224 0001410  81.6374 278.4775 15.06437506176930,15.06437506,0.000141,LEO
47746,STARLINK-2160,2021,95.59,260.0,+,53.05,Active,1,LEO,USA,USA,Commercial,Communications,Falcon,1 47746U 21017AA  24131.55797406  .00006256  00000+0  43849-3 0  9992,2 47746  53.0539 330.9762 0002101  90.5230 269.6000 15.06401110176396,15.0640111,0.0002101,LEO
47747,STARLINK-2161,2021,95.59,260.0,+,53.05,Active,1,LEO,USA,USA,Commercial,Communications,Falcon,1 47747U 21017AB  24131.55521710  .00004035  00000+0  28966-3 0  9992,2 47747  53.0548 320.9889 0001240  84.6133 275.4998 15.06391131176533,15.06391131,0.000124,LEO
47748,STARLINK-2162,2021,95.59,260.0,+,53.06,Active,1,LEO,USA,USA,Commercial,Communications,Falcon,1 47748U 21017AC  24130.95070565  .00005969  00000+0  41919-3 0  9993,2 47748  53.0553 323.7002 0001499 101.0427 259.0730 15.06408415177070,15.06408415,0.0001499,LEO
47749,STARLINK-2163,2021,95.59,260.0,+,53.05,Active,1,LEO,USA,USA,Commercial,Communications,Falcon,1 47749U 21017AD  24131.49623905  .00005676  00000+0  39974-3 0  9999,2 47749  53.0553 321.2565 0001943 101.9042 258.2165 15.06392389177158,15.06392389,0.0001943,LEO
47750,STARLINK-2164,2021,95.59,260.0,+,53.05,Active,1,LEO,USA,USA,Commercial,Communications,Falcon,1 47750U 21017AE  24130.94332275  .00006406  00000+0  44828-3 0  9993,2 47750  53.0541 323.7353 0001378  91.2089 268.9058 15.06425145177070,15.06425145,0.0001378,LEO
47751,STARLINK-2168,2021,93.41,260.0,P,53.05,Active,1,LEO,USA,USA,Commercial,Communications,Falcon,1 47751U 21017AF  24131.58334491  .00195524  00000+0  44657-2 0  9996,2 47751  53.0526 302.9052 0000879  77.9950 107.8585 15.41636994176780,15.41636994,8.79e-05,LEO
47752,STARLINK-2169,2021,95.59,260.0,+,53.05,Active,1,LEO,USA,USA,Commercial,Communications,Falcon,1 47752U 21017AG  24131.53815434  .00002664  00000+0  19772-3 0  9996,2 47752  53.0539 326.0660 0002034  81.5513 278.5706 15.06396428177146,15.06396428,0.0002034,LEO
47753,STARLINK-2170,2021,95.59,260.0,+,53.05,Active,1,LEO,USA,USA,Commercial,Communications,Falcon,1 47753U 21017AH  24131.51374341  .00000128  00000+0  27526-4 0  9992,2 47753  53.0574 331.1762 0001547 100.4191 259.6972 15.06385204177063,15.06385204,0.0001547,LEO
47754,STARLINK-2171,2021,95.59,260.0,+,53.05,Active,1,LEO,USA,USA,Commercial,Communications,Falcon,1 47754U 21017AJ  24131.55060927  .00004217  00000+0  30189-3 0  9990,2 47754  53.0528 331.0085 0001789  85.5531 274.5662 15.06391561176399,15.06391561,0.0001789,LEO
47756,STARLINK-2174,2021,95.59,260.0,+,53.05,Active,1,LEO,USA,USA,Commercial,Communications,Falcon,1 47756U 21017AL  24131.54691594  .00005611  00000+0  39530-3 0  9999,2 47756  53.0521 331.0271 0001606  89.3258 270.7915 15.06396422176397,15.06396422,0.0001606,LEO
47757,STARLINK-2175,2021,95.59,260.0,+,53.05,Active,1,LEO,USA,USA,Commercial,Communications,Falcon,1 47757U 21017AM  24131.26677472  .00003326  00000+0  24210-3 0  9998,2 47757  53.0546 332.2815 0001448  87.6931 272.4224 15.06399047176977,15.06399047,0.0001448,LEO
47760,STARLINK-2178,2021,95.59,260.0,+,53.05,Active,1,LEO,USA,USA,Commercial,Communications,Falcon,1 47760U 21017AQ  24131.56443258  .00002702  00000+0  20028-3 0  9998,2 47760  53.0571 340.9522 0002331  88.8199 271.3057 15.06386008176910,15.06386008,0.0002331,LEO
47761,STARLINK-2179,2021,95.59,260.0,+,53.05,Active,1,LEO,USA,USA,Commercial,Communications,Falcon,1 47761U 21017AR  24131.52847741  .00003287  00000+0  23951-3 0  9997,2 47761  53.0563 331.1146 0001778  93.5971 266.5221 15.06395969177029,15.06395969,0.0001778,LEO
47762,STARLINK-2180,2021,95.59,260.0,+,53.06,Active,1,LEO,USA,USA,Commercial,Communications,Falcon,1 47762U 21017AS  24131.62109244  .00010965  00000+0  75376-3 0  9997,2 47762  53.0557 345.7028 0002191  86.3321 273.7919 15.06405459176841,15.06405459,0.0002191,LEO
47763,STARLINK-2181,2021,95.59,260.0,+,53.05,Active,1,LEO,USA,USA,Commercial,Communications,Falcon,1 47763U 21017AT  24131.30502853  .00008889  00000+0  61493-3 0  9993,2 47763  53.0543 337.1088 0001404  90.2028 269.9122 15.06396048176916,15.06396048,0.0001404,LEO
47764,STARLINK-2182,2021,95.59,260.0,+,53.05,Active,1,LEO,USA,USA,Commercial,Communications,Falcon,1 47764U 21017AU  24131.00921886  .00018606  00000+0  12640-2 0  9999,2 47764  53.0542 348.4385 0001407  87.1051 273.0099 15.06419607176786,15.06419607,0.0001407,LEO
47766,STARLINK-2184,2021,95.59,260.0,+,53.06,Active,1,LEO,USA,USA,Commercial,Communications,Falcon,1 47766U 21017AW  24131.62383294  .00003218  00000+0  23488-3 0  9990,2 47766  53.0557 345.6738 0001703  93.2221 266.8963 15.06393067176816,15.06393067,0.0001703,LEO
47767,STARLINK-2185,2021,95.59,260.0,+,53.06,Active,1,LEO,USA,USA,Commercial,Communications,Falcon,1 47767U 21017AX  24131.58376638  .00003720  00000+0  26848-3 0  9991,2 47767  53.0552 330.8606 0002034  84.6714 275.4507 15.06400448177083,15.06400448,0.0002034,LEO
47768,STARLINK-2189,2021,95.59,260.0,+,53.05,Active,1,LEO,USA,USA,Commercial,Communications,Falcon,1 47768U 21017AY  24131.62481964  .00005563  00000+0  39203-3 0  9992,2 47768  53.0549 346.0736 0002056  86.2845 273.8379 15.06401779176840,15.06401779,0.0002056,LEO
47769,STARLINK-2192,2021,95.59,260.0,+,53.05,Active,1,LEO,USA,USA,Commercial,Communications,Falcon,1 47769U 21017AZ  24131.50084616  .00004605  00000+0  32789-3 0  9991,2 47769  53.0543 311.2331 0001403  86.6831 273.4319 15.06393962177344,15.06393962,0.0001403,LEO
47770,STARLINK-2193,2021,95.59,260.0,+,53.05,Active,1,LEO,USA,USA,Commercial,Communications,Falcon,1 47770U 21017BA  24131.24328047  .00005961  00000+0  41874-3 0  9994,2 47770  53.0544 327.3875 0001235  93.4185 266.6945 15.06398630177075,15.0639863,0.0001235,LEO
47771,STARLINK-2194,2021,95.59,260.0,+,53.05,Active,1,LEO,USA,USA,Commercial,Communications,Falcon,1 47771U 21017BB  24131.25434830  .00010967  00000+0  75404-3 0  9992,2 47771  53.0543 327.3382 0001389  94.6231 265.4916 15.06396241177085,15.06396241,0.0001389,LEO
47772,STARLINK-2195,2021,95.59,260.0,+,53.05,Active,1,LEO,USA,USA,Commercial,Communications,Falcon,1 47772U 21017BC  24131.57548313  .00005196  00000+0  36743-3 0  9991,2 47772  53.0543 340.8970 0001164  79.8341 280.2779 15.06405538176897,15.06405538,0.0001164,LEO
47773,STARLINK-2196,2021,95.59,260.0,+,53.05,Active,1,LEO,USA,USA,Commercial,Communications,Falcon,1 47773U 21017BD  24131.57179367  .00009881  00000+0  68128-3 0  9998,2 47773  53.0541 340.9160 0002204  86.1299 273.9942 15.06401820176887,15.0640182,0.0002204,LEO
47774,STARLINK-2197,2021,95.59,260.0,+,53.05,Active,1,LEO,USA,USA,Commercial,Communications,Falcon,1 47774U 21017BE  24131.56810411  .00008203  00000+0  56898-3 0  9998,2 47774  53.0540 340.9337 0002343  85.1493 274.9763 15.06398363176252,15.06398363,0.0002343,LEO
47775,STARLINK-2198,2021,95.59,260.0,+,53.05,Active,1,LEO,USA,USA,Commercial,Communications,Falcon,1 47775U 21017BF  24131.57916153  .00008921  00000+0  61696-3 0  9999,2 47775  53.0538 340.8816 0002015  90.3340 269.7880 15.06402879176942,15.06402879,0.0002015,LEO
47776,STARLINK-2209,2021,95.59,260.0,+,53.05,Active,1,LEO,USA,USA,Commercial,Communications,Falcon,1 47776U 21017BG  24131.53954862  .00004534  00000+0  32313-3 0  9995,2 47776  53.0548 331.0586 0001463  82.4266 277.6889 15.06393787177041,15.06393787,0.0001463,LEO
47777,STARLINK-2210,2021,95.59,260.0,+,53.05,Active,1,LEO,USA,USA,Commercial,Communications,Falcon,1 47777U 21017BH  24131.54323564  .00004913  00000+0  34853-3 0  9998,2 47777  53.0532 331.0418 0001781  89.5758 270.5435 15.06393718177049,15.06393718,0.0001781,LEO
47778,STARLINK-2211,2021,95.59,260.0,+,53.06,Active,1,LEO,USA,USA,Commercial,Communications,Falcon,1 47778U 21017BJ  24131.57640416  .00006760  00000+0  47232-3 0  9997,2 47778  53.0556 330.8926 0001457 110.1029 250.0117 15.06395245177046,15.06395245,0.0001457,LEO
47780,STARLINK-2213,2021,95.59,260.0,+,53.05,Active,1,LEO,USA,USA,Commercial,Communications,Falcon,1 47780U 21017BL  24131.53585853  .00008845  00000+0  61196-3 0  9990,2 47780  53.0539 331.0773 0001491  91.4816 268.6344 15.06400195177077,15.06400195,0.0001491,LEO
47781,STARLINK-2223,2021,95.59,260.0,+,53.05,Active,1,LEO,USA,USA,Commercial,Communications,Falcon,1 47781U 21017BM  24131.56903428  .00000657  00000+0  63037-4 0  9996,2 47781  53.0547 330.9245 0000916  90.1536 269.9558 15.06382663177031,15.06382663,9.16e-05,LEO
47787,STARLINK-2257,2021,95.59,260.0,+,53.05,Active,1,LEO,USA,USA,Commercial,Communications,Falcon,1 47787U 21018A   24131.38841266  .00011332  00000+0  77817-3 0  9996,2 47787  53.0543  11.7367 0001606  78.6347 281.4822 15.06412938175861,15.06412938,0.0001606,LEO
